{"type": "FeatureCollection", "features": [ {"type": "Feature", "properties": {"norad_id": 34031, "name": "COSMOS 2251 DEB", "group": "cosmos-2251-debris", "lat": 59.48480963891496, "lon": -86.70040626568233, "alt_km": 697.3332538550931, "timestamp": "2025-12-19T16:54:44.656704+00:00", "meta": {"OBJECT_NAME": "COSMOS 2251 DEB", "OBJECT_ID": "1993-036HS", "EPOCH": "2025-12-19T03:29:25.717056", "MEAN_MOTION": 14.59757227, "ECCENTRICITY": 0.00229414, "INCLINATION": 74.0127, "RA_OF_ASC_NODE": 123.4727, "ARG_OF_PERICENTER": 243.4611, "MEAN_ANOMALY": 175.3292, "EPHEMERIS_TYPE": 0, "CLASSIFICATION_TYPE": "U", "NORAD_CAT_ID": 34031, "ELEMENT_SET_NO": 999, "REV_AT_EPOCH": 88659, "BSTAR": 0.00097665147, "MEAN_MOTION_DOT": 4.652e-05, "MEAN_MOTION_DDOT": 0}, "tle": {"line1": "1 34031U 93036HS  25353.14543654  .00004652  00000+0  97665-3 0  9994", "line2": "2 34031  74.0127 123.4727 0022941 243.4611 175.3292 14.59757227886593"}}, "geometry": {"type": "Point", "coordinates": [-86.70040626568233, 59.48480963891496]}}, {"type": "Feature", "properties": {"norad_id": 34035, "name": "COSMOS 2251 DEB", "group": "cosmos-2251-debris", "lat": 73.58845859437913, "lon": 51.97318731164088, "alt_km": 722.4612067990738, "timestamp": "2025-12-19T16:54:44.656715+00:00", "meta": {"OBJECT_NAME": "COSMOS 2251 DEB", "OBJECT_ID": "1993-036HW", "EPOCH": "2025-12-19T00:14:29.888160", "MEAN_MOTION": 14.52017996, "ECCENTRICITY": 0.00450959, "INCLINATION": 74.0652, "RA_OF_ASC_NODE": 337.3466, "ARG_OF_PERICENTER": 337.5642, "MEAN_ANOMALY": 78.5564, "EPHEMERIS_TYPE": 0, "CLASSIFICATION_TYPE": "U", "NORAD_CAT_ID": 34035, "ELEMENT_SET_NO": 999, "REV_AT_EPOCH": 88057, "BSTAR": 0.0012957618, "MEAN_MOTION_DOT": 5.282e-05, "MEAN_MOTION_DDOT": 0}, "tle": {"line1": "1 34035U 93036HW  25353.01006815  .00005282  00000+0  12958-2 0  9998", "line2": "2 34035  74.0652 337.3466 0045095 337.5642  78.5564 14.52017996880573"}}, "geometry": {"type": "Point", "coordinates": [51.97318731164088, 73.58845859437913]}}, {"type": "Feature", "properties": {"norad_id": 34036, "name": "COSMOS 2251 DEB", "group": "cosmos-2251-debris", "lat": -10.382126997879409, "lon": 132.1939949862026, "alt_km": 592.4405707145561, "timestamp": "2025-12-19T16:54:44.656726+00:00", "meta": {"OBJECT_NAME": "COSMOS 2251 DEB", "OBJECT_ID": "1993-036HX", "EPOCH": "2025-12-18T13:39:59.580576", "MEAN_MOTION": 14.95421329, "ECCENTRICITY": 0.00110737, "INCLINATION": 74.0196, "RA_OF_ASC_NODE": 137.4958, "ARG_OF_PERICENTER": 168.8965, "MEAN_ANOMALY": 191.2466, "EPHEMERIS_TYPE": 0, "CLASSIFICATION_TYPE": "U", "NORAD_CAT_ID": 34036, "ELEMENT_SET_NO": 999, "REV_AT_EPOCH": 88657, "BSTAR": 0.0031797854, "MEAN_MOTION_DOT": 0.00035336, "MEAN_MOTION_DDOT": 0}, "tle": {"line1": "1 34036U 93036HX  25352.56943959  .00035336  00000+0  31798-2 0  9993", "line2": "2 34036  74.0196 137.4958 0011073 168.8965 191.2466 14.95421329886570"}}, "geometry": {"type": "Point", "coordinates": [132.1939949862026, -10.382126997879409]}}, {"type": "Feature", "properties": {"norad_id": 34037, "name": "COSMOS 2251 DEB", "group": "cosmos-2251-debris", "lat": -28.029334722902153, "lon": 28.938795202428004, "alt_km": 796.9250035581235, "timestamp": "2025-12-19T16:54:44.656737+00:00", "meta": {"OBJECT_NAME": "COSMOS 2251 DEB", "OBJECT_ID": "1993-036HY", "EPOCH": "2025-12-19T05:20:02.689440", "MEAN_MOTION": 14.34680787, "ECCENTRICITY": 0.00518317, "INCLINATION": 74.0512, "RA_OF_ASC_NODE": 38.578, "ARG_OF_PERICENTER": 86.5709, "MEAN_ANOMALY": 274.137, "EPHEMERIS_TYPE": 0, "CLASSIFICATION_TYPE": "U", "NORAD_CAT_ID": 34037, "ELEMENT_SET_NO": 999, "REV_AT_EPOCH": 87810, "BSTAR": 0.0003132828, "MEAN_MOTION_DOT": 8.75e-06, "MEAN_MOTION_DDOT": 0}, "tle": {"line1": "1 34037U 93036HY  25353.22225335  .00000875  00000+0  31328-3 0  9999", "line2": "2 34037  74.0512  38.5780 0051831  86.5709 274.1370 14.34680787878108"}}, "geometry": {"type": "Point", "coordinates": [28.938795202428004, -28.029334722902153]}}, {"type": "Feature", "properties": {"norad_id": 34040, "name": "COSMOS 2251 DEB", "group": "cosmos-2251-debris", "lat": 0.07409787741967372, "lon": 54.37603208562296, "alt_km": 755.7721660570087, "timestamp": "2025-12-19T16:54:44.656748+00:00", "meta": {"OBJECT_NAME": "COSMOS 2251 DEB", "OBJECT_ID": "1993-036JB", "EPOCH": "2025-12-19T04:37:49.766304", "MEAN_MOTION": 13.683837, "ECCENTRICITY": 0.03432402, "INCLINATION": 73.9557, "RA_OF_ASC_NODE": 55.2, "ARG_OF_PERICENTER": 7.256, "MEAN_ANOMALY": 353.334, "EPHEMERIS_TYPE": 0, "CLASSIFICATION_TYPE": "U", "NORAD_CAT_ID": 34040, "ELEMENT_SET_NO": 999, "REV_AT_EPOCH": 83688, "BSTAR": 0.0004706507, "MEAN_MOTION_DOT": 5.84e-06, "MEAN_MOTION_DDOT": 0}, "tle": {"line1": "1 34040U 93036JB  25353.19293711  .00000584  00000+0  47065-3 0  9994", "line2": "2 34040  73.9557  55.2000 0343240   7.2560 353.3340 13.68383700836880"}}, "geometry": {"type": "Point", "coordinates": [54.37603208562296, 0.07409787741967372]}}, {"type": "Feature", "properties": {"norad_id": 34045, "name": "COSMOS 2251 DEB", "group": "cosmos-2251-debris", "lat": 0.6467232722736148, "lon": -61.7271646161362, "alt_km": 763.1031029698852, "timestamp": "2025-12-19T16:54:44.656759+00:00", "meta": {"OBJECT_NAME": "COSMOS 2251 DEB", "OBJECT_ID": "1993-036JG", "EPOCH": "2025-12-19T05:41:55.171968", "MEAN_MOTION": 14.34072275, "ECCENTRICITY": 0.00259332, "INCLINATION": 74.0394, "RA_OF_ASC_NODE": 298.9423, "ARG_OF_PERICENTER": 20.6012, "MEAN_ANOMALY": 89.0526, "EPHEMERIS_TYPE": 0, "CLASSIFICATION_TYPE": "U", "NORAD_CAT_ID": 34045, "ELEMENT_SET_NO": 999, "REV_AT_EPOCH": 88126, "BSTAR": 6.8402332e-05, "MEAN_MOTION_DOT": 1.66e-06, "MEAN_MOTION_DDOT": 0}, "tle": {"line1": "1 34045U 93036JG  25353.23744412  .00000166  00000+0  68402-4 0  9998", "line2": "2 34045  74.0394 298.9423 0025933  20.6012  89.0526 14.34072275881265"}}, "geometry": {"type": "Point", "coordinates": [-61.7271646161362, 0.6467232722736148]}}, {"type": "Feature", "properties": {"norad_id": 34046, "name": "COSMOS 2251 DEB", "group": "cosmos-2251-debris", "lat": -55.936847128973525, "lon": -27.57400199387954, "alt_km": 783.0916407246259, "timestamp": "2025-12-19T16:54:44.656771+00:00", "meta": {"OBJECT_NAME": "COSMOS 2251 DEB", "OBJECT_ID": "1993-036JH", "EPOCH": "2025-12-19T00:43:57.227808", "MEAN_MOTION": 14.46521232, "ECCENTRICITY": 0.00744204, "INCLINATION": 74.0392, "RA_OF_ASC_NODE": 358.7267, "ARG_OF_PERICENTER": 80.2904, "MEAN_ANOMALY": 311.5854, "EPHEMERIS_TYPE": 0, "CLASSIFICATION_TYPE": "U", "NORAD_CAT_ID": 34046, "ELEMENT_SET_NO": 999, "REV_AT_EPOCH": 87917, "BSTAR": 0.00087623791, "MEAN_MOTION_DOT": 3.24e-05, "MEAN_MOTION_DDOT": 0}, "tle": {"line1": "1 34046U 93036JH  25353.03052347  .00003240  00000+0  87624-3 0  9998", "line2": "2 34046  74.0392 358.7267 0074420  80.2904 311.5854 14.46521232879171"}}, "geometry": {"type": "Point", "coordinates": [-27.57400199387954, -55.936847128973525]}}, {"type": "Feature", "properties": {"norad_id": 34050, "name": "COSMOS 2251 DEB", "group": "cosmos-2251-debris", "lat": -5.360578285431414, "lon": -3.428413801574241, "alt_km": 844.1136762735041, "timestamp": "2025-12-19T16:54:44.656782+00:00", "meta": {"OBJECT_NAME": "COSMOS 2251 DEB", "OBJECT_ID": "1993-036JM", "EPOCH": "2025-12-18T17:24:58.136832", "MEAN_MOTION": 13.96193763, "ECCENTRICITY": 0.021463, "INCLINATION": 74.0883, "RA_OF_ASC_NODE": 359.7841, "ARG_OF_PERICENTER": 62.5594, "MEAN_ANOMALY": 55.3269, "EPHEMERIS_TYPE": 0, "CLASSIFICATION_TYPE": "U", "NORAD_CAT_ID": 34050, "ELEMENT_SET_NO": 999, "REV_AT_EPOCH": 85515, "BSTAR": 0.0005354004, "MEAN_MOTION_DOT": 8.71e-06, "MEAN_MOTION_DDOT": 0}, "tle": {"line1": "1 34050U 93036JM  25352.72567288  .00000871  00000+0  53540-3 0  9990", "line2": "2 34050  74.0883 359.7841 0214630  62.5594  55.3269 13.96193763855150"}}, "geometry": {"type": "Point", "coordinates": [-3.428413801574241, -5.360578285431414]}}, {"type": "Feature", "properties": {"norad_id": 34053, "name": "COSMOS 2251 DEB", "group": "cosmos-2251-debris", "lat": -46.69604050722604, "lon": 68.86090418326505, "alt_km": 1348.570696316735, "timestamp": "2025-12-19T16:54:44.656792+00:00", "meta": {"OBJECT_NAME": "COSMOS 2251 DEB", "OBJECT_ID": "1993-036JQ", "EPOCH": "2025-12-19T01:32:20.446656", "MEAN_MOTION": 13.49171011, "ECCENTRICITY": 0.04225955, "INCLINATION": 73.8435, "RA_OF_ASC_NODE": 231.9802, "ARG_OF_PERICENTER": 19.4918, "MEAN_ANOMALY": 342.1806, "EPHEMERIS_TYPE": 0, "CLASSIFICATION_TYPE": "U", "NORAD_CAT_ID": 34053, "ELEMENT_SET_NO": 999, "REV_AT_EPOCH": 82769, "BSTAR": 0.00056919139, "MEAN_MOTION_DOT": 6e-06, "MEAN_MOTION_DDOT": 0}, "tle": {"line1": "1 34053U 93036JQ  25353.06412554  .00000600  00000+0  56919-3 0  9999", "line2": "2 34053  73.8435 231.9802 0422595  19.4918 342.1806 13.49171011827695"}}, "geometry": {"type": "Point", "coordinates": [68.86090418326505, -46.69604050722604]}}, {"type": "Feature", "properties": {"norad_id": 34056, "name": "COSMOS 2251 DEB", "group": "cosmos-2251-debris", "lat": 30.415380801223687, "lon": 73.58312722403248, "alt_km": 801.9491668564442, "timestamp": "2025-12-19T16:54:44.656802+00:00", "meta": {"OBJECT_NAME": "COSMOS 2251 DEB", "OBJECT_ID": "1993-036JT", "EPOCH": "2025-12-18T15:59:27.207168", "MEAN_MOTION": 14.2057747, "ECCENTRICITY": 0.01237714, "INCLINATION": 74.0597, "RA_OF_ASC_NODE": 65.7803, "ARG_OF_PERICENTER": 112.0513, "MEAN_ANOMALY": 12.8618, "EPHEMERIS_TYPE": 0, "CLASSIFICATION_TYPE": "U", "NORAD_CAT_ID": 34056, "ELEMENT_SET_NO": 999, "REV_AT_EPOCH": 86495, "BSTAR": 0.0004746606, "MEAN_MOTION_DOT": 1.079e-05, "MEAN_MOTION_DDOT": 0}, "tle": {"line1": "1 34056U 93036JT  25352.66628712  .00001079  00000+0  47466-3 0  9990", "line2": "2 34056  74.0597  65.7803 0123771 112.0513  12.8618 14.20577470864950"}}, "geometry": {"type": "Point", "coordinates": [73.58312722403248, 30.415380801223687]}}]}